ONEWEB-0207             
1 48242U 21031AJ  24272.42437250 -.00000160  00000+0 -46629-3 0  9999
2 48242  87.8974  54.3229 0001580  90.8246 269.3064 13.14502913165958
ONEWEB-0208             
1 48243U 21031AK  24272.86283402  .00000083  00000+0  18894-3 0  9991
2 48243  87.8971  54.2496 0001849  92.8312 267.3029 13.14500589166020
ONEWEB-0200             
1 48244U 21031AL  24272.44577958 -.00000014  00000+0 -71715-4 0  9996
2 48244  87.8968  54.3284 0001911  93.7759 266.3589 13.14503589165895
ONEWEB-0217             
1 48245U 21031AM  24272.38552392  .00000273  00000+0  70084-3 0  9997
2 48245  87.8969  54.3250 0002035  93.5559 266.5804 13.14503973165837
ONEWEB-0211             
1 48767U 21045A   24272.61081845  .00000234  00000+0  58761-3 0  9992
2 48767  87.9112  23.8684 0001954 106.1407 253.9939 13.15549121162035
ONEWEB-0223             
1 48768U 21045B   24272.55694384  .00000111  00000+0  26079-3 0  9995
2 48768  87.9117  23.8895 0002320 112.6181 247.5194 13.15550423162011
ONEWEB-0230             
1 48769U 21045C   24272.60447272  .00000189  00000+0  46923-3 0  9999
2 48769  87.9111  23.9494 0001760 105.2166 254.9159 13.15551021162287
ONEWEB-0237             
1 48770U 21045D   24272.82156089 -.00000015  00000+0 -74518-4 0  9990
2 48770  87.9118  23.8437 0002070 110.0548 250.0806 13.15549357163168
